[{"OBJECT_NAME":"STARLINK-5706","OBJECT_ID":"2023-015AR","EPOCH":"2026-03-09T22:00:01.999584","MEAN_MOTION":15.11306207,"ECCENTRICITY":0.00017122,"INCLINATION":43.0008,"RA_OF_ASC_NODE":337.2757,"ARG_OF_PERICENTER":259.2891,"MEAN_ANOMALY":97.8373,"EPHEMERIS_TYPE":0,"CLASSIFICATION_TYPE":"U","NORAD_CAT_ID":55488,"ELEMENT_SET_NO":999,"REV_AT_EPOCH":577,"BSTAR":0.0010391091,"MEAN_MOTION_DOT":0.00017632,"MEAN_MOTION_DDOT":0},{"OBJECT_NAME":"FENGYUN 1C DEB","OBJECT_ID":"1999-025BZZ","EPOCH":"2026-03-09T13:05:44.544480","MEAN_MOTION":14.97363263,"ECCENTRICITY":0.00745573,"INCLINATION":99.0712,"RA_OF_ASC_NODE":279.0573,"ARG_OF_PERICENTER":15.484,"MEAN_ANOMALY":344.8634,"EPHEMERIS_TYPE":0,"CLASSIFICATION_TYPE":"U","NORAD_CAT_ID":31619,"ELEMENT_SET_NO":999,"REV_AT_EPOCH":64782,"BSTAR":0.0036839182,"MEAN_MOTION_DOT":0.00045478,"MEAN_MOTION_DDOT":0}]
